STARLINK-35893          
1 66565U 25268J   25361.91671296 -.02040417  00000+0 -58850-1 0  9995
2 66565  43.0013  32.3108 0001598 262.1979 111.6129 15.38658335  6056
STARLINK-35871          
1 66566U 25268K   25361.91671296 -.02057245  00000+0 -58348-1 0  9995
2 66566  42.9998  32.2876 0001560 264.1268 119.0213 15.39196664  6059
STARLINK-35825          
1 66567U 25268L   25361.91671296 -.02003028  00000+0 -55535-1 0  9991
2 66567  43.0006  32.2626 0001553 265.5755 127.6870 15.39778998  6053
STARLINK-35803          
1 66568U 25268M   25361.91671296 -.01778185  00000+0 -44921-1 0  9991
2 66568  43.0006  32.2767 0001500 268.5276 118.8850 15.42147516  6053
STARLINK-35835          
1 66569U 25268N   25361.91671296 -.02058080  00000+0 -54436-1 0  9990
2 66569  43.0005  32.2057 0001905 265.3311 150.5570 15.41283708  6054
STARLINK-35834          
1 66570U 25268P   25361.91671296  .00039095  00000+0  14249-2 0  9992
2 66570  43.0011  32.8403 0001544 289.5720 224.3708 15.27529079  6056
STARLINK-35836          
1 66571U 25268Q   25361.91671296  .00038308  00000+0  13963-2 0  9991
2 66571  43.0009  32.7896 0001348 287.1530 248.0506 15.27534122  6058
STARLINK-35870          
1 66572U 25268R   25361.91671296 -.01112071  00000+0 -43298-1 0  9998
2 66572  43.0011  32.7064 0001270 286.8563 283.4044 15.28304818  6064
STARLINK-35650          
1 66573U 25268S   25361.91671296 -.03328633  00000+0 -12531+0 0  9998
2 66573  43.0007  32.6583 0000925 258.6124 331.2644 15.30395263  6066
STARLINK-35812          
1 66574U 25268T   25361.91671296 -.02329179  00000+0 -86132-1 0  9994
2 66574  43.0009  32.6102 0002019 248.6955   0.7485 15.30824771  6065
STARLINK-35810          
1 66575U 25268U   25361.91671296 -.01999428  00000+0 -71495-1 0  9990
2 66575  43.0007  32.5653 0001017 273.7331 354.7642 15.31350694  6064
STARLINK-35814          
1 66576U 25268V   25361.91671296 -.02002154  00000+0 -69730-1 0  9992
2 66576  43.0006  32.5204 0001147 256.3686  30.5302 15.32189327  6066
