CCSDS_OMM_VERS = 2.0
CREATION_DATE  = 
ORIGINATOR     = 

OBJECT_NAME    = STARLINK-35893
OBJECT_ID      = 2025-268J
CENTER_NAME    = EARTH
REF_FRAME      = TEME
TIME_SYSTEM    = UTC
MEAN_ELEMENT_THEORY = SGP/SGP4

EPOCH          = 2025-12-27T22:00:03.999744
MEAN_MOTION    = 15.38658335
ECCENTRICITY   = .00015981
INCLINATION    = 43.0013
RA_OF_ASC_NODE = 32.3108
ARG_OF_PERICENTER = 262.1979
MEAN_ANOMALY   = 111.6129

EPHEMERIS_TYPE = 0
CLASSIFICATION_TYPE = U
NORAD_CAT_ID   = 66565
ELEMENT_SET_NO = 999
REV_AT_EPOCH   = 605
BSTAR          = -.58849744E-1
MEAN_MOTION_DOT = -.2040417E-1
MEAN_MOTION_DDOT = 0

CCSDS_OMM_VERS = 2.0
CREATION_DATE  = 
ORIGINATOR     = 

OBJECT_NAME    = STARLINK-35871
OBJECT_ID      = 2025-268K
CENTER_NAME    = EARTH
REF_FRAME      = TEME
TIME_SYSTEM    = UTC
MEAN_ELEMENT_THEORY = SGP/SGP4

EPOCH          = 2025-12-27T22:00:03.999744
MEAN_MOTION    = 15.39196664
ECCENTRICITY   = .00015607
INCLINATION    = 42.9998
RA_OF_ASC_NODE = 32.2876
ARG_OF_PERICENTER = 264.1268
MEAN_ANOMALY   = 119.0213

EPHEMERIS_TYPE = 0
CLASSIFICATION_TYPE = U
NORAD_CAT_ID   = 66566
ELEMENT_SET_NO = 999
REV_AT_EPOCH   = 605
BSTAR          = -.58347919E-1
MEAN_MOTION_DOT = -.2057245E-1
MEAN_MOTION_DDOT = 0

CCSDS_OMM_VERS = 2.0
CREATION_DATE  = 
ORIGINATOR     = 

OBJECT_NAME    = STARLINK-35825
OBJECT_ID      = 2025-268L
CENTER_NAME    = EARTH
REF_FRAME      = TEME
TIME_SYSTEM    = UTC
MEAN_ELEMENT_THEORY = SGP/SGP4

EPOCH          = 2025-12-27T22:00:03.999744
MEAN_MOTION    = 15.39778998
ECCENTRICITY   = .00015533
INCLINATION    = 43.0006
RA_OF_ASC_NODE = 32.2626
ARG_OF_PERICENTER = 265.5755
MEAN_ANOMALY   = 127.6870

EPHEMERIS_TYPE = 0
CLASSIFICATION_TYPE = U
NORAD_CAT_ID   = 66567
ELEMENT_SET_NO = 999
REV_AT_EPOCH   = 605
BSTAR          = -.55534993E-1
MEAN_MOTION_DOT = -.2003028E-1
MEAN_MOTION_DDOT = 0

CCSDS_OMM_VERS = 2.0
CREATION_DATE  = 
ORIGINATOR     = 

OBJECT_NAME    = STARLINK-35803
OBJECT_ID      = 2025-268M
CENTER_NAME    = EARTH
REF_FRAME      = TEME
TIME_SYSTEM    = UTC
MEAN_ELEMENT_THEORY = SGP/SGP4

EPOCH          = 2025-12-27T22:00:03.999744
MEAN_MOTION    = 15.42147516
ECCENTRICITY   = .00015001
INCLINATION    = 43.0006
RA_OF_ASC_NODE = 32.2767
ARG_OF_PERICENTER = 268.5276
MEAN_ANOMALY   = 118.8850

EPHEMERIS_TYPE = 0
CLASSIFICATION_TYPE = U
NORAD_CAT_ID   = 66568
ELEMENT_SET_NO = 999
REV_AT_EPOCH   = 605
BSTAR          = -.44921222E-1
MEAN_MOTION_DOT = -.1778185E-1
MEAN_MOTION_DDOT = 0

CCSDS_OMM_VERS = 2.0
CREATION_DATE  = 
ORIGINATOR     = 

OBJECT_NAME    = STARLINK-35835
OBJECT_ID      = 2025-268N
CENTER_NAME    = EARTH
REF_FRAME      = TEME
TIME_SYSTEM    = UTC
MEAN_ELEMENT_THEORY = SGP/SGP4

EPOCH          = 2025-12-27T22:00:03.999744
MEAN_MOTION    = 15.41283708
ECCENTRICITY   = .00019053
INCLINATION    = 43.0005
RA_OF_ASC_NODE = 32.2057
ARG_OF_PERICENTER = 265.3311
MEAN_ANOMALY   = 150.5570

EPHEMERIS_TYPE = 0
CLASSIFICATION_TYPE = U
NORAD_CAT_ID   = 66569
ELEMENT_SET_NO = 999
REV_AT_EPOCH   = 605
BSTAR          = -.544359E-1
MEAN_MOTION_DOT = -.205808E-1
MEAN_MOTION_DDOT = 0

CCSDS_OMM_VERS = 2.0
CREATION_DATE  = 
ORIGINATOR     = 

OBJECT_NAME    = STARLINK-35834
OBJECT_ID      = 2025-268P
CENTER_NAME    = EARTH
REF_FRAME      = TEME
TIME_SYSTEM    = UTC
MEAN_ELEMENT_THEORY = SGP/SGP4

EPOCH          = 2025-12-27T22:00:03.999744
MEAN_MOTION    = 15.27529079
ECCENTRICITY   = .00015449
INCLINATION    = 43.0011
RA_OF_ASC_NODE = 32.8403
ARG_OF_PERICENTER = 289.5720
MEAN_ANOMALY   = 224.3708

EPHEMERIS_TYPE = 0
CLASSIFICATION_TYPE = U
NORAD_CAT_ID   = 66570
ELEMENT_SET_NO = 999
REV_AT_EPOCH   = 605
BSTAR          = .14248919E-2
MEAN_MOTION_DOT = .39095E-3
MEAN_MOTION_DDOT = 0

CCSDS_OMM_VERS = 2.0
CREATION_DATE  = 
ORIGINATOR     = 

OBJECT_NAME    = STARLINK-35836
OBJECT_ID      = 2025-268Q
CENTER_NAME    = EARTH
REF_FRAME      = TEME
TIME_SYSTEM    = UTC
MEAN_ELEMENT_THEORY = SGP/SGP4

EPOCH          = 2025-12-27T22:00:03.999744
MEAN_MOTION    = 15.27534122
ECCENTRICITY   = .00013483
INCLINATION    = 43.0009
RA_OF_ASC_NODE = 32.7896
ARG_OF_PERICENTER = 287.1530
MEAN_ANOMALY   = 248.0506

EPHEMERIS_TYPE = 0
CLASSIFICATION_TYPE = U
NORAD_CAT_ID   = 66571
ELEMENT_SET_NO = 999
REV_AT_EPOCH   = 605
BSTAR          = .13963316E-2
MEAN_MOTION_DOT = .38308E-3
MEAN_MOTION_DDOT = 0

CCSDS_OMM_VERS = 2.0
CREATION_DATE  = 
ORIGINATOR     = 

OBJECT_NAME    = STARLINK-35870
OBJECT_ID      = 2025-268R
CENTER_NAME    = EARTH
REF_FRAME      = TEME
TIME_SYSTEM    = UTC
MEAN_ELEMENT_THEORY = SGP/SGP4

EPOCH          = 2025-12-27T22:00:03.999744
MEAN_MOTION    = 15.28304818
ECCENTRICITY   = .000127
INCLINATION    = 43.0011
RA_OF_ASC_NODE = 32.7064
ARG_OF_PERICENTER = 286.8563
MEAN_ANOMALY   = 283.4044

EPHEMERIS_TYPE = 0
CLASSIFICATION_TYPE = U
NORAD_CAT_ID   = 66572
ELEMENT_SET_NO = 999
REV_AT_EPOCH   = 606
BSTAR          = -.43298432E-1
MEAN_MOTION_DOT = -.1112071E-1
MEAN_MOTION_DDOT = 0

CCSDS_OMM_VERS = 2.0
CREATION_DATE  = 
ORIGINATOR     = 

OBJECT_NAME    = STARLINK-35650
OBJECT_ID      = 2025-268S
CENTER_NAME    = EARTH
REF_FRAME      = TEME
TIME_SYSTEM    = UTC
MEAN_ELEMENT_THEORY = SGP/SGP4

EPOCH          = 2025-12-27T22:00:03.999744
MEAN_MOTION    = 15.30395263
ECCENTRICITY   = .00009252
INCLINATION    = 43.0007
RA_OF_ASC_NODE = 32.6583
ARG_OF_PERICENTER = 258.6124
MEAN_ANOMALY   = 331.2644

EPHEMERIS_TYPE = 0
CLASSIFICATION_TYPE = U
NORAD_CAT_ID   = 66573
ELEMENT_SET_NO = 999
REV_AT_EPOCH   = 606
BSTAR          = -.12531065E+0
MEAN_MOTION_DOT = -.3328633E-1
MEAN_MOTION_DDOT = 0

CCSDS_OMM_VERS = 2.0
CREATION_DATE  = 
ORIGINATOR     = 

OBJECT_NAME    = STARLINK-35812
OBJECT_ID      = 2025-268T
CENTER_NAME    = EARTH
REF_FRAME      = TEME
TIME_SYSTEM    = UTC
MEAN_ELEMENT_THEORY = SGP/SGP4

EPOCH          = 2025-12-27T22:00:03.999744
MEAN_MOTION    = 15.30824771
ECCENTRICITY   = .00020196
INCLINATION    = 43.0009
RA_OF_ASC_NODE = 32.6102
ARG_OF_PERICENTER = 248.6955
MEAN_ANOMALY   = 0.7485

EPHEMERIS_TYPE = 0
CLASSIFICATION_TYPE = U
NORAD_CAT_ID   = 66574
ELEMENT_SET_NO = 999
REV_AT_EPOCH   = 606
BSTAR          = -.86132439E-1
MEAN_MOTION_DOT = -.2329179E-1
MEAN_MOTION_DDOT = 0

CCSDS_OMM_VERS = 2.0
CREATION_DATE  = 
ORIGINATOR     = 

OBJECT_NAME    = STARLINK-35810
OBJECT_ID      = 2025-268U
CENTER_NAME    = EARTH
REF_FRAME      = TEME
TIME_SYSTEM    = UTC
MEAN_ELEMENT_THEORY = SGP/SGP4

EPOCH          = 2025-12-27T22:00:03.999744
MEAN_MOTION    = 15.31350694
ECCENTRICITY   = .00010178
INCLINATION    = 43.0007
RA_OF_ASC_NODE = 32.5653
ARG_OF_PERICENTER = 273.7331
MEAN_ANOMALY   = 354.7642

EPHEMERIS_TYPE = 0
CLASSIFICATION_TYPE = U
NORAD_CAT_ID   = 66575
ELEMENT_SET_NO = 999
REV_AT_EPOCH   = 606
BSTAR          = -.71494833E-1
MEAN_MOTION_DOT = -.1999428E-1
MEAN_MOTION_DDOT = 0

CCSDS_OMM_VERS = 2.0
CREATION_DATE  = 
ORIGINATOR     = 

OBJECT_NAME    = STARLINK-35814
OBJECT_ID      = 2025-268V
CENTER_NAME    = EARTH
REF_FRAME      = TEME
TIME_SYSTEM    = UTC
MEAN_ELEMENT_THEORY = SGP/SGP4

EPOCH          = 2025-12-27T22:00:03.999744
MEAN_MOTION    = 15.32189327
ECCENTRICITY   = .00011477
INCLINATION    = 43.0006
RA_OF_ASC_NODE = 32.5204
ARG_OF_PERICENTER = 256.3686
MEAN_ANOMALY   = 30.5302

EPHEMERIS_TYPE = 0
CLASSIFICATION_TYPE = U
NORAD_CAT_ID   = 66576
ELEMENT_SET_NO = 999
REV_AT_EPOCH   = 606
BSTAR          = -.69730121E-1
MEAN_MOTION_DOT = -.2002154E-1
MEAN_MOTION_DDOT = 0

